EUTELSAT 21B            
1 38992U 12062B   26027.57353081  .00000139  00000+0  00000+0 0  9992
2 38992   0.0687 344.5134 0002894 325.6015  44.7851  1.00274142 48410
EUTELSAT 70B            
1 39020U 12069A   26027.56414127 -.00000034  00000+0  00000+0 0  9995
2 39020   0.0623   9.1196 0003185 271.1812 120.0964  1.00271637 48092
EUTELSAT 117 WEST A     
1 39122U 13012A   26027.54754892 -.00000005  00000+0  00000+0 0  9999
2 39122   0.0552 269.3890 0003398  38.5102 259.2187  1.00274994 47023
EUTELSAT 7B             
1 39163U 13022A   26027.57067080  .00000057  00000+0  00000+0 0  9990
2 39163   0.0737 333.9391 0005708 359.3400   6.0020  1.00273154 46535
EXPRESS-AT1             
1 39612U 14010A   26026.69350339  .00000089  00000+0  00000+0 0  9996
2 39612   0.0079  43.2808 0000926 144.5961 243.7540  1.00279598 43396
EXPRESS-AT2             
1 39613U 14010B   26027.59701759 -.00000273  00000+0  00000+0 0  9999
2 39613   0.0117 350.4816 0002375 287.3351 203.8154  1.00270930 43097
EUTELSAT 3B             
1 39773U 14030A   26027.56989079  .00000028  00000+0  00000+0 0  9995
2 39773   0.0617 357.7435 0003240 254.5559  82.7743  1.00270688 42653
EUTELSAT 115 WEST B     
1 40425U 15010B   26027.54649065 -.00000016  00000+0  00000+0 0  9994
2 40425   0.0050 181.8365 0000313 256.4566 130.3382  1.00272729 39984
